{"type": "FeatureCollection", "features": [{"type": "Feature", "properties": {"name": "Aral Sea", "note": "Natural Earth 10m lakes_historic"}, "bbox": [58.158455, 43.392815, 61.939206, 46.865911], "geometry": {"type": "Polygon", "coordinates": [[[60.941438, 43.6428], [60.89405, 43.668121], [60.864026, 43.674839], [60.851831, 43.663135], [60.852347, 43.64311], [60.865887, 43.614998], [60.860977, 43.59717], [60.837671, 43.589728], [60.81204, 43.588695], [60.783824, 43.594172], [60.774678, 43.609675], [60.784445, 43.635203], [60.783824, 43.651895], [60.772972, 43.659595], [60.757366, 43.642697], [60.736851, 43.601045], [60.721709, 43.589883], [60.711581, 43.609055], [60.68874, 43.610657], [60.653083, 43.594534], [60.628433, 43.590555], [60.614274, 43.598617], [60.588384, 43.590762], [60.550815, 43.566887], [60.5303, 43.568489], [60.526889, 43.595464], [60.516864, 43.614119], [60.500534, 43.624455], [60.490974, 43.620295], [60.488029, 43.601614], [60.476815, 43.597712], [60.457281, 43.608693], [60.445706, 43.603087], [60.441933, 43.580943], [60.434853, 43.576602], [60.42457, 43.590142], [60.411651, 43.594844], [60.39651, 43.590865], [60.390515, 43.599753], [60.393667, 43.621561], [60.387983, 43.632516], [60.373307, 43.632516], [60.357804, 43.620295], [60.341319, 43.595878], [60.330105, 43.588979], [60.323749, 43.599598], [60.292743, 43.594172], [60.237088, 43.572572], [60.194816, 43.568722], [60.166033, 43.582494], [60.151615, 43.564252], [60.151615, 43.513971], [60.14407, 43.483998], [60.128929, 43.474231], [60.106967, 43.471234], [60.078648, 43.474955], [60.063765, 43.485497], [60.062628, 43.502679], [60.034568, 43.506684], [59.979739, 43.497486], [59.946563, 43.485393], [59.935091, 43.470511], [59.915454, 43.465756], [59.8876, 43.471234], [59.862072, 43.464594], [59.839128, 43.445964], [59.820214, 43.438652], [59.805176, 43.442605], [59.79174, 43.432839], [59.780061, 43.409352], [59.762078, 43.395993], [59.738048, 43.392815], [59.728282, 43.402763], [59.732829, 43.425707], [59.722184, 43.443045], [59.696294, 43.454904], [59.674331, 43.492912], [59.655935, 43.557224], [59.650405, 43.598746], [59.658002, 43.617427], [59.68694, 43.628899], [59.737428, 43.63324], [59.755515, 43.641172], [59.741201, 43.652644], [59.576663, 43.68595], [59.506125, 43.721141], [59.469641, 43.773128], [59.42861, 43.784703], [59.38298, 43.756023], [59.337298, 43.755429], [59.291512, 43.782998], [59.234875, 43.797674], [59.167489, 43.799379], [59.137723, 43.786202], [59.145785, 43.757987], [59.137207, 43.731012], [59.111833, 43.705122], [59.08646, 43.698662], [59.06057, 43.719229], [58.958303, 43.842581], [58.887196, 43.898753], [58.746223, 43.941076], [58.712426, 43.937924], [58.721211, 43.934875], [58.785187, 43.918029], [58.82813, 43.900459], [58.847664, 43.884284], [58.810922, 43.877101], [58.799449, 43.840023], [58.835106, 43.816148], [58.913913, 43.805529], [58.958406, 43.779949], [58.980214, 43.750649], [58.976596, 43.72326], [58.955357, 43.701453], [58.937736, 43.691841], [58.923576, 43.69445], [58.920166, 43.709101], [58.9274, 43.735766], [58.897015, 43.747005], [58.82937, 43.742665], [58.772578, 43.728221], [58.694598, 43.690962], [58.676046, 43.690704], [58.676666, 43.695975], [58.696407, 43.706879], [58.69775, 43.715095], [58.680439, 43.720521], [58.59817, 43.710393], [58.564942, 43.697422], [58.547889, 43.680162], [58.434459, 43.642283], [58.401127, 43.638847], [58.404331, 43.65143], [58.3787, 43.682591], [58.324026, 43.732303], [58.314001, 43.857826], [58.348521, 44.059131], [58.327902, 44.187004], [58.209511, 44.281676], [58.199228, 44.308031], [58.172408, 44.47169], [58.192148, 44.544605], [58.242429, 44.590261], [58.252919, 44.629561], [58.212405, 44.662634], [58.180934, 44.722527], [58.158455, 44.80924], [58.173855, 44.906805], [58.265012, 45.078294], [58.287749, 45.096355], [58.309712, 45.142863], [58.330951, 45.217794], [58.376736, 45.294689], [58.447016, 45.37334], [58.491975, 45.446566], [58.511147, 45.514391], [58.532747, 45.560228], [58.556674, 45.584025], [58.576931, 45.637743], [58.593519, 45.721381], [58.62499, 45.798121], [58.671654, 45.86822], [58.758935, 45.929017], [58.98073, 46.007617], [59.040313, 46.014231], [59.06548, 46.005937], [59.056643, 45.990202], [59.073748, 45.97842], [59.116743, 45.974389], [59.156534, 45.984259], [59.192655, 46.004335], [59.245365, 46.019089], [59.314457, 46.032266], [59.365358, 46.027512], [59.397863, 46.004826], [59.409438, 45.981675], [59.400136, 45.958162], [59.38453, 45.945347], [59.362568, 45.943409], [59.328409, 45.920232], [59.282521, 45.876049], [59.258078, 45.830987], [59.255132, 45.784969], [59.268826, 45.773781], [59.299109, 45.797294], [59.347685, 45.809076], [59.414554, 45.809076], [59.461683, 45.854913], [59.500027, 46.004258], [59.494756, 46.028132], [59.482922, 46.036194], [59.464112, 46.028391], [59.465455, 46.050198], [59.486746, 46.101668], [59.505246, 46.125646], [59.521007, 46.122132], [59.531498, 46.127299], [59.536769, 46.141097], [59.527725, 46.17572], [59.504419, 46.231117], [59.468297, 46.272148], [59.419102, 46.298503], [59.425664, 46.323902], [59.48809, 46.34832], [59.565191, 46.358887], [59.687612, 46.351782], [59.758667, 46.336511], [59.801145, 46.309149], [59.818922, 46.271942], [59.819904, 46.232306], [59.828534, 46.19776], [59.852202, 46.175927], [59.84135, 46.143474], [59.837939, 46.107843], [59.85892, 46.101048], [59.900881, 46.123165], [59.93044, 46.152156], [59.947286, 46.188045], [59.987077, 46.211971], [60.049606, 46.223676], [60.080922, 46.240884], [60.080922, 46.263622], [60.057874, 46.300364], [60.011623, 46.351265], [59.953488, 46.392038], [59.846931, 46.444567], [59.844037, 46.457512], [59.855509, 46.470379], [59.881347, 46.483324], [59.891734, 46.497122], [59.886515, 46.511772], [59.853545, 46.521642], [59.792619, 46.526913], [59.780268, 46.537042], [59.816442, 46.552286], [59.84352, 46.55487], [59.861245, 46.544845], [59.875973, 46.551821], [59.887703, 46.575954], [59.937054, 46.59771], [60.023457, 46.616882], [60.224892, 46.713414], [60.291555, 46.723206], [60.325248, 46.709409], [60.346952, 46.704887], [60.366486, 46.711243], [60.385399, 46.684681], [60.403848, 46.625254], [60.425552, 46.608975], [60.45046, 46.636054], [60.482189, 46.635537], [60.520791, 46.603704], [60.55495, 46.585902], [60.585232, 46.585902], [60.622181, 46.59709], [60.665795, 46.63471], [60.656029, 46.671013], [60.592932, 46.706101], [60.523944, 46.728916], [60.449271, 46.739562], [60.422503, 46.75894], [60.443742, 46.787104], [60.460123, 46.791677], [60.471595, 46.772764], [60.494643, 46.772144], [60.529576, 46.789972], [60.581563, 46.806121], [60.677888, 46.798783], [60.789922, 46.775554], [60.872191, 46.744316], [60.878186, 46.717858], [60.866713, 46.696154], [60.837671, 46.679255], [60.813022, 46.646906], [60.808267, 46.606831], [60.829093, 46.561304], [60.875292, 46.521746], [60.946812, 46.500326], [61.117189, 46.495287], [61.152484, 46.506139], [61.165817, 46.528309], [61.156773, 46.56164], [61.161631, 46.592232], [61.180441, 46.620034], [61.173465, 46.63471], [61.141012, 46.636157], [61.123545, 46.643909], [61.120858, 46.658016], [61.155688, 46.667266], [61.227828, 46.671917], [61.267361, 46.693363], [61.274182, 46.7315], [61.326685, 46.763126], [61.424819, 46.788086], [61.473911, 46.811211], [61.47355, 46.832476], [61.486831, 46.850718], [61.513444, 46.865911], [61.534786, 46.861518], [61.550548, 46.837334], [61.549101, 46.813511], [61.530032, 46.789972], [61.546414, 46.779611], [61.598142, 46.782505], [61.641653, 46.765555], [61.676897, 46.728761], [61.675553, 46.706644], [61.637209, 46.699202], [61.592302, 46.651402], [61.499026, 46.504873], [61.467814, 46.476425], [61.440942, 46.459631], [61.418463, 46.454515], [61.397017, 46.460742], [61.375985, 46.478544], [61.359293, 46.443843], [61.346943, 46.356562], [61.332783, 46.30827], [61.31666, 46.299124], [61.302759, 46.303516], [61.291029, 46.317805], [61.276301, 46.314368], [61.254752, 46.289408], [61.249481, 46.270288], [61.256509, 46.260935], [61.250049, 46.249307], [61.229172, 46.241659], [61.219974, 46.223573], [61.225865, 46.20745], [61.224624, 46.187916], [61.210465, 46.166677], [61.179718, 46.143242], [61.131969, 46.117739], [61.082204, 46.112236], [61.030166, 46.126886], [60.969239, 46.127299], [60.899425, 46.113502], [60.888107, 46.098412], [60.935185, 46.082083], [60.965622, 46.060533], [60.979523, 46.033868], [60.99854, 46.021363], [61.022983, 46.023068], [61.027841, 46.010304], [61.013216, 45.982967], [61.018229, 45.960643], [61.042982, 45.943047], [61.042, 45.927415], [61.015128, 45.913617], [61.027634, 45.906899], [61.079362, 45.907158], [61.09378, 45.894445], [61.070835, 45.868581], [61.035799, 45.857962], [60.98867, 45.862484], [60.977094, 45.847265], [61.000762, 45.812254], [60.995853, 45.779956], [60.962418, 45.750294], [60.934461, 45.736522], [60.912395, 45.738589], [60.895756, 45.726368], [60.885007, 45.699884], [60.894205, 45.669343], [60.923454, 45.634565], [60.952031, 45.639086], [60.979885, 45.682675], [61.005413, 45.705981], [61.028357, 45.708798], [61.038227, 45.716834], [61.035075, 45.730166], [61.04908, 45.732698], [61.080344, 45.724662], [61.102048, 45.730709], [61.11414, 45.750785], [61.126336, 45.743964], [61.138686, 45.710012], [61.16871, 45.68743], [61.21646, 45.676216], [61.248809, 45.658232], [61.265655, 45.633583], [61.268084, 45.615393], [61.256147, 45.603559], [61.253925, 45.589503], [61.261728, 45.573173], [61.249532, 45.560228], [61.217803, 45.550694], [61.204367, 45.532504], [61.209483, 45.505477], [61.225348, 45.489251], [61.25222, 45.483824], [61.285086, 45.457082], [61.324102, 45.409178], [61.378207, 45.364039], [61.447557, 45.321819], [61.480216, 45.271538], [61.476444, 45.213195], [61.480009, 45.175471], [61.4905, 45.158211], [61.519077, 45.157229], [61.565224, 45.172474], [61.594111, 45.169167], [61.605583, 45.147333], [61.62429, 45.144465], [61.65018, 45.160588], [61.668215, 45.181931], [61.678964, 45.208596], [61.687283, 45.205289], [61.693381, 45.172061], [61.706559, 45.162914], [61.726816, 45.177797], [61.755858, 45.17852], [61.793479, 45.164981], [61.803969, 45.153819], [61.787381, 45.144879], [61.769191, 45.145757], [61.749295, 45.156351], [61.733637, 45.145861], [61.722165, 45.114312], [61.706662, 45.097233], [61.687128, 45.094598], [61.67824, 45.082712], [61.679945, 45.061473], [61.688885, 45.046073], [61.705009, 45.036565], [61.709504, 45.019822], [61.702631, 44.995663], [61.723044, 45.015739], [61.770741, 45.080128], [61.796166, 45.09098], [61.799318, 45.048502], [61.833993, 45.031552], [61.900397, 45.040208], [61.935434, 45.03889], [61.939206, 45.027625], [61.932643, 45.020184], [61.915538, 45.016515], [61.909182, 45.001167], [61.913109, 44.974114], [61.906288, 44.968249], [61.888563, 44.983442], [61.864275, 44.991245], [61.833528, 44.991503], [61.82128, 44.983132], [61.827688, 44.966233], [61.81973, 44.957552], [61.797613, 44.957345], [61.769552, 44.943702], [61.735756, 44.916676], [61.721958, 44.895695], [61.728263, 44.880761], [61.716067, 44.86748], [61.685785, 44.855646], [61.66191, 44.859418], [61.64465, 44.87859], [61.629406, 44.868281], [61.616228, 44.828361], [61.592302, 44.813891], [61.557421, 44.824743], [61.520627, 44.806992], [61.481973, 44.760406], [61.457065, 44.743095], [61.446213, 44.754825], [61.426266, 44.743818], [61.39774, 44.709892], [61.355624, 44.687077], [61.300072, 44.675218], [61.266121, 44.65757], [61.253925, 44.634031], [61.238784, 44.635918], [61.220955, 44.663254], [61.180441, 44.669559], [61.117344, 44.654883], [61.111091, 44.641783], [61.161889, 44.630285], [61.174602, 44.620828], [61.149073, 44.613387], [61.134552, 44.599046], [61.131142, 44.577807], [61.120135, 44.575611], [61.101841, 44.592509], [61.079827, 44.589667], [61.054712, 44.56693], [61.063859, 44.538146], [61.107577, 44.503057], [61.122098, 44.466005], [61.107422, 44.426938], [61.125767, 44.415337], [61.177289, 44.431072], [61.202042, 44.425336], [61.200336, 44.398128], [61.184834, 44.386269], [61.155533, 44.390067], [61.145663, 44.366632], [61.155068, 44.316092], [61.151657, 44.303328], [61.135276, 44.328288], [61.120393, 44.338675], [61.107216, 44.334334], [61.101841, 44.293251], [61.104012, 44.215375], [61.085821, 44.216486], [61.029443, 44.346245], [61.032853, 44.366373], [61.025877, 44.371644], [61.008307, 44.362239], [61.048821, 44.166437], [61.045927, 44.147265], [61.026859, 44.162303], [61.000969, 44.166075], [60.990634, 44.183387], [60.995853, 44.214393], [60.990013, 44.253047], [60.973425, 44.299297], [60.955804, 44.324567], [60.937045, 44.328908], [60.934203, 44.303121], [60.947174, 44.247492], [60.948982, 44.21013], [60.939732, 44.191139], [60.9187, 44.189278], [60.885627, 44.204523], [60.866972, 44.174499], [60.862579, 44.09931], [60.853278, 44.062671], [60.839015, 44.064635], [60.827904, 44.052852], [60.820101, 44.027273], [60.810076, 44.017867], [60.797364, 44.024482], [60.783824, 44.019469], [60.769562, 44.002726], [60.747806, 44.004742], [60.718764, 44.025412], [60.700212, 44.025671], [60.692254, 44.00562], [60.696285, 43.982159], [60.712408, 43.955494], [60.718764, 43.927795], [60.715612, 43.899037], [60.730236, 43.881287], [60.76274, 43.87431], [60.788114, 43.887384], [60.806562, 43.920457], [60.818241, 43.924747], [60.823512, 43.900304], [60.837413, 43.88909], [60.860099, 43.891157], [60.863044, 43.881752], [60.845939, 43.861133], [60.844751, 43.840152], [60.859014, 43.818913], [60.876635, 43.818448], [60.897254, 43.83886], [60.911155, 43.842038], [60.917976, 43.827931], [60.934358, 43.825218], [60.960248, 43.833848], [60.97265, 43.82651], [60.971927, 43.803281], [60.981693, 43.79522], [61.002002, 43.802377], [61.000504, 43.78845], [60.976836, 43.753413], [60.964589, 43.716956], [60.963865, 43.679025], [60.97172, 43.656494], [60.988308, 43.649259], [60.988773, 43.641766], [60.973064, 43.634092], [60.941438, 43.6428]]]}}]}