{"type": "FeatureCollection", "note": "Natural Earth 10m rivers_europe (v5), the Kupa only", "features": [{"type": "Feature", "properties": {"name": "Kupa", "scalerank": 10, "featurecla": "River", "ne_id": 1159117189}, "bbox": [15.023611, 44.30093, 16.405772, 45.549872], "geometry": {"type": "LineString", "coordinates": [[15.930512, 44.515774], [15.944347, 44.508857], [15.9546, 44.500149], [15.959727, 44.488715], [15.952891, 44.472357], [15.934337, 44.451606], [15.901622, 44.435696], [15.830089, 44.427883], [15.820323, 44.416083], [15.822602, 44.400092], [15.820811, 44.386949], [15.822602, 44.369452], [15.844737, 44.317857], [15.845225, 44.303697], [15.835216, 44.30093], [15.820811, 44.303209], [15.802419, 44.312445], [15.756114, 44.343695], [15.690196, 44.374986], [15.660492, 44.395413], [15.620372, 44.41059], [15.604666, 44.425035], [15.588878, 44.444566], [15.568044, 44.465318], [15.544688, 44.4772], [15.52296, 44.474921], [15.49936, 44.467841], [15.471528, 44.468004], [15.451834, 44.475816], [15.447765, 44.487047], [15.448009, 44.499172], [15.427989, 44.519436], [15.419607, 44.55272], [15.403656, 44.574612], [15.3838, 44.590644], [15.360118, 44.5987], [15.352712, 44.624172], [15.345958, 44.636054], [15.329438, 44.649237], [15.302501, 44.666734], [15.281423, 44.685736], [15.279145, 44.702297], [15.285655, 44.715277], [15.285492, 44.725653], [15.293142, 44.731513], [15.346365, 44.734605], [15.362315, 44.737779], [15.364757, 44.746568], [15.355724, 44.777045], [15.358165, 44.789211], [15.355968, 44.799994], [15.340099, 44.812567], [15.260265, 44.849758], [15.242524, 44.863471], [15.236827, 44.878892], [15.240977, 44.89525], [15.236095, 44.913967], [15.208669, 44.935004], [15.172048, 44.949856], [15.122406, 44.957261], [15.096202, 44.972113], [15.077159, 44.989447], [15.0713, 44.999172], [15.084972, 45.000718], [15.112804, 44.998603], [15.144298, 45.00259], [15.167247, 45.018744], [15.179535, 45.039455], [15.185313, 45.054185], [15.177013, 45.068834], [15.130544, 45.111558], [15.113292, 45.13109], [15.098481, 45.142279], [15.057384, 45.146186], [15.035899, 45.156562], [15.023611, 45.172838], [15.023692, 45.18887], [15.028982, 45.203518], [15.029959, 45.228176], [15.037364, 45.239732], [15.056977, 45.244615], [15.115896, 45.235338], [15.131847, 45.24136], [15.141124, 45.249498], [15.169688, 45.250922], [15.203136, 45.267564], [15.221446, 45.27265], [15.235688, 45.271186], [15.243175, 45.264716], [15.250336, 45.253648], [15.264334, 45.24136], [15.28297, 45.231838], [15.302013, 45.227525], [15.318858, 45.230455], [15.332774, 45.238186], [15.34547, 45.242499], [15.375824, 45.230048], [15.393077, 45.230211], [15.406098, 45.238349], [15.41212, 45.250393], [15.41033, 45.262397], [15.397227, 45.281236], [15.393077, 45.299709], [15.39503, 45.325181], [15.402599, 45.353176], [15.41391, 45.377916], [15.424978, 45.395657], [15.437755, 45.405422], [15.470388, 45.416246], [15.485362, 45.425279], [15.494477, 45.438381], [15.497081, 45.453355], [15.506358, 45.465725], [15.606293, 45.487128], [15.641612, 45.487779], [15.671886, 45.491441], [15.682465, 45.50316], [15.68572, 45.514553], [15.697927, 45.516995], [15.713634, 45.516262], [15.73878, 45.522162], [15.758311, 45.51911], [15.783539, 45.520738], [15.791352, 45.524563], [15.812836, 45.523424], [15.839692, 45.546047], [15.854259, 45.549872], [15.859874, 45.548977], [15.864431, 45.547349], [15.867442, 45.544867], [15.868663, 45.541653], [15.868907, 45.537909], [15.868337, 45.534817], [15.871837, 45.532416], [15.874766, 45.531073], [15.902192, 45.527737], [15.902354, 45.527655], [15.922862, 45.511298], [15.928477, 45.503119], [15.928722, 45.499986], [15.928396, 45.496405], [15.927745, 45.484198], [15.935883, 45.474799], [15.977794, 45.472724], [15.992035, 45.475287], [16.000011, 45.481147], [16.007498, 45.485256], [16.01531, 45.48607], [16.025238, 45.485663], [16.03297, 45.483873], [16.037283, 45.482001], [16.04656, 45.475898], [16.060313, 45.469957], [16.076345, 45.455797], [16.085785, 45.459215], [16.093028, 45.471747], [16.103852, 45.480943], [16.123302, 45.48607], [16.178233, 45.493638], [16.2046, 45.5126], [16.218923, 45.51435], [16.230642, 45.508979], [16.234874, 45.500556], [16.229747, 45.490871], [16.219005, 45.482571], [16.21339, 45.473863], [16.221039, 45.463446], [16.238455, 45.457994], [16.256114, 45.46133], [16.276378, 45.469794], [16.300059, 45.476711], [16.32252, 45.476467], [16.35963, 45.459866], [16.405772, 45.470893]]}}]}